[{"OBJECT_NAME":"FLORIPASAT-1","OBJECT_ID":"2019-093G","EPOCH":"2026-03-09T23:35:55.317696","MEAN_MOTION":15.02721611,"ECCENTRICITY":0.00131238,"INCLINATION":97.7908,"RA_OF_ASC_NODE":162.596,"ARG_OF_PERICENTER":52.6692,"MEAN_ANOMALY":307.5727,"EPHEMERIS_TYPE":0,"CLASSIFICATION_TYPE":"U","NORAD_CAT_ID":44885,"ELEMENT_SET_NO":999,"REV_AT_EPOCH":33774,"BSTAR":0.00066057159,"MEAN_MOTION_DOT":8.782e-5,"MEAN_MOTION_DDOT":0},{"OBJECT_NAME":"STARLINK-34630","OBJECT_ID":"2025-158S","EPOCH":"2026-03-09T13:54:42.789888","MEAN_MOTION":15.05650622,"ECCENTRICITY":0.0001986,"INCLINATION":97.6024,"RA_OF_ASC_NODE":294.0455,"ARG_OF_PERICENTER":82.2798,"MEAN_ANOMALY":277.8654,"EPHEMERIS_TYPE":0,"CLASSIFICATION_TYPE":"U","NORAD_CAT_ID":64948,"ELEMENT_SET_NO":999,"REV_AT_EPOCH":3534,"BSTAR":0.00018476,"MEAN_MOTION_DOT":2.606e-5,"MEAN_MOTION_DDOT":0}]
